{
    "links": {
        "self": "http://www.neowsapp.com/rest/v1/neo/3743743?api_key=iIulBulltgU6a56xZRHN4H3l9WmuAYTsLGpBGhQ2"
    },
    "id": "3743743",
    "neo_reference_id": "3743743",
    "name": "(2016 CN195)",
    "designation": "2016 CN195",
    "nasa_jpl_url": "http://ssd.jpl.nasa.gov/sbdb.cgi?sstr=3743743",
    "absolute_magnitude_h": 25.6,
    "estimated_diameter": {
        "kilometers": {
            "estimated_diameter_min": 0.0201629919,
            "estimated_diameter_max": 0.0450858206
        },
        "meters": {
            "estimated_diameter_min": 20.1629919443,
            "estimated_diameter_max": 45.0858206172
        },
        "miles": {
            "estimated_diameter_min": 0.0125286985,
            "estimated_diameter_max": 0.0280150214
        },
        "feet": {
            "estimated_diameter_min": 66.1515504905,
            "estimated_diameter_max": 147.9193637137
        }
    },
    "is_potentially_hazardous_asteroid": false,
    "close_approach_data": [
        {
            "close_approach_date": "2016-02-11",
            "close_approach_date_full": "2016-Feb-11 04:15",
            "epoch_date_close_approach": 1455164100000,
            "relative_velocity": {
                "kilometers_per_second": "3.6198654533",
                "kilometers_per_hour": "13031.5156318794",
                "miles_per_hour": "8097.2770324864"
            },
            "miss_distance": {
                "astronomical": "0.1172515253",
                "lunar": "45.6108433417",
                "kilometers": "17540578.439131111",
                "miles": "10899210.0389908918"
            },
            "orbiting_body": "Earth"
        },
        {
            "close_approach_date": "2020-12-15",
            "close_approach_date_full": "2020-Dec-15 15:51",
            "epoch_date_close_approach": 1608047460000,
            "relative_velocity": {
                "kilometers_per_second": "11.7548083129",
                "kilometers_per_hour": "42317.3099265372",
                "miles_per_hour": "26294.3307151864"
            },
            "miss_distance": {
                "astronomical": "0.0289263184",
                "lunar": "11.2523378576",
                "kilometers": "4327315.619581808",
                "miles": "2688869.2414846304"
            },
            "orbiting_body": "Mars"
        }
    ],
    "orbital_data": {
        "orbit_id": "7",
        "orbit_determination_date": "2017-04-06 08:28:18",
        "first_observation_date": "2016-02-10",
        "last_observation_date": "2016-03-04",
        "data_arc_in_days": 23,
        "observations_used": 24,
        "orbit_uncertainty": "7",
        "minimum_orbit_intersection": ".115289",
        "jupiter_tisserand_invariant": "3.869",
        "epoch_osculation": "2459000.5",
        "eccentricity": ".4136082287656753",
        "semi_major_axis": "1.874057875524194",
        "inclination": "1.759231379085251",
        "ascending_node_longitude": "19.20327601777296",
        "orbital_period": "937.0719221364182",
        "perihelion_distance": "1.098932117024268",
        "perihelion_argument": "120.7607197975468",
        "aphelion_distance": "2.64918363402412",
        "perihelion_time": "2459302.026581614224",
        "mean_anomaly": "244.160898628101",
        "mean_motion": ".3841754207929319",
        "equinox": "J2000",
        "orbit_class": {
            "orbit_class_type": "AMO",
            "orbit_class_description": "Near-Earth asteroid orbits similar to that of 1221 Amor",
            "orbit_class_range": "1.017 AU < q (perihelion) < 1.3 AU"
        }
    },
    "is_sentry_object": false
}